EOSSAT-1                
1 55053U 23001AW  26068.73619225  .00007695  00000+0  24844-3 0  9992
2 55053  97.3357 130.2294 0011263 110.3168 249.9285 15.32339828176689
STARLINK-32121          
1 60264U 24131K   26068.27091357 -.00001798  00000+0 -48616-4 0  9990
2 60264  53.1616  54.4383 0001470  85.7966 274.3203 15.30188870 91701
