[{"OBJECT_NAME":"EOSSAT-1","OBJECT_ID":"2023-001AW","EPOCH":"2026-03-09T17:40:07.010400","MEAN_MOTION":15.32339828,"ECCENTRICITY":0.00112629,"INCLINATION":97.3357,"RA_OF_ASC_NODE":130.2294,"ARG_OF_PERICENTER":110.3168,"MEAN_ANOMALY":249.9285,"EPHEMERIS_TYPE":0,"CLASSIFICATION_TYPE":"U","NORAD_CAT_ID":55053,"ELEMENT_SET_NO":999,"REV_AT_EPOCH":17668,"BSTAR":0.00024844399,"MEAN_MOTION_DOT":7.695e-5,"MEAN_MOTION_DDOT":0},{"OBJECT_NAME":"STARLINK-32121","OBJECT_ID":"2024-131K","EPOCH":"2026-03-09T06:30:06.932448","MEAN_MOTION":15.3018887,"ECCENTRICITY":0.00014702,"INCLINATION":53.1616,"RA_OF_ASC_NODE":54.4383,"ARG_OF_PERICENTER":85.7966,"MEAN_ANOMALY":274.3203,"EPHEMERIS_TYPE":0,"CLASSIFICATION_TYPE":"U","NORAD_CAT_ID":60264,"ELEMENT_SET_NO":999,"REV_AT_EPOCH":9170,"BSTAR":-4.8616436e-5,"MEAN_MOTION_DOT":-1.798e-5,"MEAN_MOTION_DDOT":0}]
